ONEWEB-0387             
1 49313U 21090AL  23261.04476494  .00000020  00000+0  16817-4 0  9992
2 49313  87.9179 114.2261 0001271  71.6336 288.4935 13.20768941 98712
ONEWEB-0388             
1 49314U 21090AM  23261.42748817  .00000040  00000+0  66956-4 0  9997
2 49314  87.9254 144.5465 0001810  79.8263 280.3073 13.19724474 95449
ONEWEB-0389             
1 50469U 21132A   23260.77749457 -.00000208  00000+0 -56923-3 0  9995
2 50469  87.9235 205.2327 0001559  72.3767 287.7535 13.17652697 87237
ONEWEB-0390             
1 50470U 21132B   23261.08335743  .00000264  00000+0  64737-3 0  9993
2 50470  87.9240 205.1785 0001852  59.8544 300.2771 13.17650644 87278
ONEWEB-0391             
1 50471U 21132C   23260.78169478  .00000053  00000+0  10359-3 0  9997
2 50471  87.9236 205.2086 0001670  74.9078 285.2238 13.17648014 87231
ONEWEB-0392             
1 50472U 21132D   23260.35561141  .00000097  00000+0  21687-3 0  9998
2 50472  87.9227 205.3310 0001659  68.4664 291.6644 13.17649817 85927
ONEWEB-0393             
1 50473U 21132E   23260.36510616  .00000140  00000+0  32767-3 0  9991
2 50473  87.9231 205.2956 0001973  69.3044 290.8299 13.17647173 85918
ONEWEB-0394             
1 50474U 21132F   23260.78286741  .00000136  00000+0  31266-3 0  9995
2 50474  87.9300 174.9902 0001745  75.1564 284.9761 13.18688540 90624
ONEWEB-0395             
1 50475U 21132G   23260.40580426  .00000864  00000+0  24017-2 0  9995
2 50475  87.8945 220.4851 0001910  76.5345 283.5996 13.11414781 84158
ONEWEB-0396             
1 50476U 21132H   23260.32129541  .00000033  00000+0  51008-4 0  9994
2 50476  87.9299 175.0728 0001682  78.3072 281.8249 13.18686511 89339
ONEWEB-0397             
1 50477U 21132J   23261.32244028  .00000129  00000+0  29358-3 0  9992
2 50477  87.9297 174.8764 0001591  79.8817 280.2494 13.18686561 90711
ONEWEB-0398             
1 50478U 21132K   23261.44216006 -.00000234  00000+0 -69595-3 0  9997
2 50478  87.8940 220.2734 0001958  62.8338 297.2989 13.11415861 85465
ONEWEB-0399             
1 50479U 21132L   23261.12425403  .00000326  00000+0  88261-3 0  9997
2 50479  87.8943 220.3476 0002011  89.4660 270.6698 13.11419136 85413
ONEWEB-0400             
1 50480U 21132M   23261.30134240 -.00000510  00000+0 -13273-2 0  9992
2 50480  87.9226 174.9118 0001948  67.3804 292.7534 13.18689711 90718
ONEWEB-0401             
1 50481U 21132N   23260.28123084  .00000189  00000+0  44734-3 0  9990
2 50481  87.9298 175.0897 0001894  87.2649 272.8700 13.18684512 89303
ONEWEB-0402             
1 50482U 21132P   23261.00627233  .00005384  00000+0  13617-1 0  9993
2 50482  87.9226 174.9709 0002718  93.4324 266.7119 13.18676149 90709
ONEWEB-0403             
1 50483U 21132Q   23260.27071285  .00000193  00000+0  45623-3 0  9999
2 50483  87.9278 175.0986 0001645  79.9018 280.2300 13.18686985 89286
ONEWEB-0404             
1 50484U 21132R   23260.64739516  .00000500  00000+0  13755-2 0  9991
2 50484  87.8943 220.3983 0001234  87.4089 272.7180 13.11412394 85431
ONEWEB-0405             
1 50485U 21132S   23261.29976639  .00032231  00000+0  81045-1 0  9995
2 50485  87.9301 174.8894 0001861  92.5237 267.6109 13.19009106 91109
ONEWEB-0406             
1 50486U 21132T   23260.27490845  .00000170  00000+0  39850-3 0  9999
2 50486  87.9297 175.0912 0001366  72.3699 287.7582 13.18684532 89315
ONEWEB-0407             
1 50487U 21132U   23261.33086428  .00000139  00000+0  31889-3 0  9995
2 50487  87.9298 174.8903 0001792  79.6692 280.4642 13.18687520 90689
ONEWEB-0409             
1 50488U 21132V   23260.95046240  .00000483  00000+0  13265-2 0  9990
2 50488  87.8942 220.3540 0001370  66.4374 293.6898 13.11419720 85379
ONEWEB-0412             
1 50489U 21132W   23260.71332242  .00000065  00000+0  13119-3 0  9990
2 50489  87.9242 175.0264 0002039  93.0574 267.0791 13.18687952 90682
ONEWEB-0413             
1 50490U 21132X   23261.32453664  .00000063  00000+0  12782-3 0  9995
2 50490  87.9304 174.8920 0002065  86.4731 273.6637 13.18685449 90714
ONEWEB-0414             
1 50491U 21132Y   23261.31084501  .00000009  00000+0 -10734-4 0  9992
2 50491  87.9299 174.8842 0001692  86.3786 273.7539 13.18686501 90740
ONEWEB-0417             
1 50492U 21132Z   23260.78708101  .00000069  00000+0  14253-3 0  9996
2 50492  87.9242 175.0251 0001584  66.7676 293.3623 13.18688450 90653
ONEWEB-0418             
1 50493U 21132AA  23260.26963599  .00000081  00000+0  17177-3 0  9996
2 50493  87.9300 175.0892 0001335  65.7857 294.3415 13.18684501 89352
ONEWEB-0419             
1 50494U 21132AB  23260.51098726  .00000085  00000+0  18355-3 0  9999
2 50494  87.9297 175.0668 0001789  61.4749 298.6563 13.18684579 89306
ONEWEB-0420             
1 50495U 21132AC  23260.78077225  .00000057  00000+0  11301-3 0  9993
2 50495  87.9297 175.0216 0002241  70.4739 289.6635 13.18685405 90636
ONEWEB-0421             
1 50496U 21132AD  23261.00207027  .00000059  00000+0  11728-3 0  9990
2 50496  87.9243 174.9722 0001832  89.8799 270.2543 13.18686950 90701
ONEWEB-0424             
1 50497U 21132AE  23260.73438645  .00000051  00000+0  96228-4 0  9993
2 50497  87.9222 175.0213 0002044  58.6759 301.4573 13.18684061 90679
ONEWEB-0426             
1 50498U 21132AF  23260.77231910  .00000084  00000+0  17912-3 0  9992
2 50498  87.9297 175.0153 0001463  85.2658 274.8641 13.18689735 90631
ONEWEB-0427             
1 50499U 21132AG  23260.73227898 -.00000003  00000+0 -40611-4 0  9995
2 50499  87.9224 175.0254 0001606  70.3297 289.8008 13.18684227 90664
ONEWEB-0429             
1 50500U 21132AH  23261.32663671 -.00000179  00000+0 -48569-3 0  9990
2 50500  87.9285 174.8892 0001985  72.8077 287.3272 13.18687892 90704
ONEWEB-0430             
1 50501U 21132AJ  23260.32971455  .00000101  00000+0  22263-3 0  9998
2 50501  87.9303 175.0795 0001967  67.4696 292.6644 13.18690344 89322
ONEWEB-0432             
1 50502U 21132AK  23261.27184762  .00000144  00000+0  33289-3 0  9998
2 50502  87.9221 174.9155 0001915  72.2408 287.8933 13.18688056 90706
ONEWEB-0440             
1 50503U 21132AL  23260.50042317 -.00000123  00000+0 -34541-3 0  9994
2 50503  87.9224 175.0822 0002094  95.7585 264.3786 13.18685923 89296
ONEWEB-0450             
1 50504U 21132AM  23260.79761672  .00000105  00000+0  23312-3 0  9990
2 50504  87.9273 175.0235 0002331  75.1803 284.9587 13.18688399 90657
ONEWEB-0410             
1 51622U 22012A   23261.10021649 -.00000015  00000+0 -70947-4 0  9998
2 51622  87.9170 205.2103 0000776  98.1825 261.9394 13.17650791 82897
ONEWEB-0411             
1 51623U 22012B   23260.98105897 -.00000947  00000+0 -27495-2 0  9994
2 51623  87.8842 235.4651 0001886  73.5711 286.5623 13.10375145 79186
ONEWEB-0415             
1 51624U 22012C   23260.97782668 -.00000099  00000+0 -31919-3 0  9996
2 51624  87.8845 235.4928 0001882  71.2896 288.8435 13.10372216 79184
ONEWEB-0416             
1 51625U 22012D   23260.45471780  .00000899  00000+0  25398-2 0  9999
2 51625  87.8842 235.5837 0002033  83.1345 277.0014 13.10371799 77874
ONEWEB-0422             
1 51626U 22012E   23261.10865895 -.00000016  00000+0 -73592-4 0  9991
2 51626  87.9167 205.2046 0002746  86.1736 273.9710 13.17646448 82990
ONEWEB-0423             
1 51627U 22012F   23261.10233378 -.00000003  00000+0 -40501-4 0  9997
2 51627  87.9233 205.1558 0001980  78.8466 281.2888 13.17650635 82899
ONEWEB-0425             
1 51628U 22012G   23261.38075282  .00000736  00000+0  20714-2 0  9999
2 51628  87.8837 235.3922 0001776  98.9883 261.1445 13.10371704 79283
ONEWEB-0428             
1 51629U 22012H   23261.43757638 -.00000853  00000+0 -24796-2 0  9994
2 51629  87.8842 235.3923 0002304  80.4796 279.6591 13.10375019 79243
ONEWEB-0431             
1 51630U 22012J   23261.58334491 -.00044357  00000+0 -13066+0 0  9992
2 51630  87.8841 235.3576 0002596  69.8168 101.9989 13.08798738 79326
ONEWEB-0434             
1 51631U 22012K   23260.69678837  .00000695  00000+0  19552-2 0  9993
2 51631  87.8836 235.5503 0002166  87.8178 272.3198 13.10373405 79190
ONEWEB-0435             
1 51632U 22012L   23261.46849540  .00000522  00000+0  14590-2 0  9997
2 51632  87.8835 235.3861 0002443  84.4755 275.6651 13.10375869 79272
ONEWEB-0436             
1 51633U 22012M   23261.09600296  .00000007  00000+0 -15654-4 0  9993
2 51633  87.9168 205.2023 0002192  81.3129 278.8251 13.17647030 82871
ONEWEB-0438             
1 51634U 22012N   23261.37587370  .00000619  00000+0  17373-2 0  9998
2 51634  87.8841 235.4057 0001868  87.7294 272.4047 13.10371847 79303
ONEWEB-0439             
1 51635U 22012P   23261.37913177  .00000858  00000+0  24215-2 0  9995
2 51635  87.8840 235.3874 0002011  79.5705 280.5649 13.10373491 79277
ONEWEB-0442             
1 51636U 22012Q   23260.40414024 -.00000002  00000+0 -38220-4 0  9992
2 51636  87.9229 205.3360 0001160  64.2784 295.8467 13.17647493 81485
ONEWEB-0443             
1 51637U 22012R   23260.34718151  .00000080  00000+0  17346-3 0  9993
2 51637  87.9230 205.3527 0002354  90.7341 269.4061 13.17650677 81522
ONEWEB-0444             
1 51638U 22012S   23260.45308914  .00000497  00000+0  13873-2 0  9990
2 51638  87.8845 235.5995 0002180  88.5432 271.5945 13.10372740 77885
ONEWEB-0445             
1 51639U 22012T   23260.47421443  .00000349  00000+0  96415-3 0  9996
2 51639  87.8840 235.5809 0001593  78.1957 281.9349 13.10372789 77896
ONEWEB-0446             
1 51640U 22012U   23260.68051894  .00000321  00000+0  88199-3 0  9990
2 51640  87.8841 235.5462 0001900  77.7069 282.4271 13.10372077 79202
ONEWEB-0448             
1 51641U 22012V   23260.45632606  .00000598  00000+0  16774-2 0  9997
2 51641  87.8840 235.5926 0002145  88.8263 271.3110 13.10371365 77844
ONEWEB-0449             
1 51642U 22012W   23261.37749298  .00000722  00000+0  20312-2 0  9998
2 51642  87.8844 235.4123 0001787  88.1436 271.9896 13.10372228 79278
